language_ID,filename,meansynratio,meanmorphratio,syn.sd,morph.sd,area,language_name,latitude,longitude,glottocode,region,macro_region,country_id,language_type,abbr,spread,migration,contact_languages,contact_languages_names,all_L1,natives,non_natives,ewave
2,ANS_003,0.947812546496411,-0.963661714297091,0.0309486765660443,0.0170789769267156,ANS,Scottish English,56.9,-1.7,"",BI,BI,GB,L1t,ScE,77933,6033,0,"",17,5002242,5191030,yes
7,CON_001,0.946332586560898,-0.963059491940718,0.029952654576217,0.0151866404515563,CON,English dialects in the Southwest of England,50.8,-4,"",BI,BI,GB,L1t,SW,9200,6033,0,"",17,1171642,89,yes
7,CON_002,0.948353409764704,-0.962987415323803,0.0303027589168385,0.0159621833856302,CON,English dialects in the Southwest of England,50.8,-4,"",BI,BI,GB,L1t,SW,9200,6033,0,"",17,1171642,89,yes
7,CON_003,0.946272217367587,-0.963845078753228,0.0247757743645337,0.0154356455814769,CON,English dialects in the Southwest of England,50.8,-4,"",BI,BI,GB,L1t,SW,9200,6033,0,"",17,1171642,89,yes
7,CON_005,0.944012630772186,-0.962829676876886,0.0237521344516262,0.0149238703985362,CON,English dialects in the Southwest of England,50.8,-4,"",BI,BI,GB,L1t,SW,9200,6033,0,"",17,1171642,89,yes
7,CON_007,0.943648853370472,-0.961409146715655,0.0253621550007471,0.0135227746107056,CON,English dialects in the Southwest of England,50.8,-4,"",BI,BI,GB,L1t,SW,9200,6033,0,"",17,1171642,89,yes
7,CON_008,0.942149263743206,-0.962779227330486,0.0226163483699605,0.0131286432909591,CON,English dialects in the Southwest of England,50.8,-4,"",BI,BI,GB,L1t,SW,9200,6033,0,"",17,1171642,89,yes
7,CON_009,0.94406321604878,-0.962940290798753,0.0231644773869142,0.0139701141343649,CON,English dialects in the Southwest of England,50.8,-4,"",BI,BI,GB,L1t,SW,9200,6033,0,"",17,1171642,89,yes
7,CON_010,0.940781193164427,-0.960974948396339,0.023005179441664,0.0129084699301751,CON,English dialects in the Southwest of England,50.8,-4,"",BI,BI,GB,L1t,SW,9200,6033,0,"",17,1171642,89,yes
7,CON_011,0.942855180215052,-0.962437091475599,0.0213124771506599,0.0130105629107819,CON,English dialects in the Southwest of England,50.8,-4,"",BI,BI,GB,L1t,SW,9200,6033,0,"",17,1171642,89,yes
7,CON_012,0.945014643664761,-0.962345466489244,0.0253398133390761,0.0130430591576433,CON,English dialects in the Southwest of England,50.8,-4,"",BI,BI,GB,L1t,SW,9200,6033,0,"",17,1171642,89,yes
5,DEN_002,0.942939955410388,-0.962041985804355,0.0241273681125962,0.0136579374251857,DEN,Welsh English,52.3,-3.5,wels1248,BI,BI,GB,L1c,WelE,20779,6033,0,"",17,2668660,96856,yes
5,DEN_003,0.942799033574455,-0.960999532209658,0.0248330079666255,0.0136264731085303,DEN,Welsh English,52.3,-3.5,wels1248,BI,BI,GB,L1c,WelE,20779,6033,0,"",17,2668660,96856,yes
7,DEV_001,0.942112595951343,-0.963601664049745,0.0239460774324459,0.0151588581245771,DEV,English dialects in the Southwest of England,50.8,-4,"",BI,BI,GB,L1t,SW,9200,6033,0,"",17,1171642,89,yes
7,DEV_002,0.942440868823128,-0.962636302522331,0.0250889068768334,0.0144531386915422,DEV,English dialects in the Southwest of England,50.8,-4,"",BI,BI,GB,L1t,SW,9200,6033,0,"",17,1171642,89,yes
7,DEV_005,0.94206039812205,-0.962858274692313,0.0235283572986157,0.0144030067165056,DEV,English dialects in the Southwest of England,50.8,-4,"",BI,BI,GB,L1t,SW,9200,6033,0,"",17,1171642,89,yes
7,DEV_007,0.94687156575479,-0.963499135918109,0.0272584443111466,0.0146632980490256,DEV,English dialects in the Southwest of England,50.8,-4,"",BI,BI,GB,L1t,SW,9200,6033,0,"",17,1171642,89,yes
7,DEV_009,0.940978259353943,-0.962787753042121,0.0225493426758524,0.0130493911805597,DEV,English dialects in the Southwest of England,50.8,-4,"",BI,BI,GB,L1t,SW,9200,6033,0,"",17,1171642,89,yes
7,DEV_011,0.942889521205458,-0.963667691688474,0.0229568325345293,0.0145696614967995,DEV,English dialects in the Southwest of England,50.8,-4,"",BI,BI,GB,L1t,SW,9200,6033,0,"",17,1171642,89,yes
2,DFS_001,0.94611885451889,-0.963613969959163,0.0294222266658194,0.0161306002058839,DFS,Scottish English,56.9,-1.7,"",BI,BI,GB,L1t,ScE,77933,6033,0,"",17,5002242,5191030,yes
2,ELN_003,0.944104091621207,-0.963465829913272,0.0274984053040757,0.0147555144963939,ELN,Scottish English,56.9,-1.7,"",BI,BI,GB,L1t,ScE,77933,6033,0,"",17,5002242,5191030,yes
2,ELN_004,0.943132587464905,-0.960438712631892,0.0266069037809249,0.0139427215327506,ELN,Scottish English,56.9,-1.7,"",BI,BI,GB,L1t,ScE,77933,6033,0,"",17,5002242,5191030,yes
2,ELN_008,0.943749423032209,-0.962634148259305,0.0268616368753509,0.0161685536226343,ELN,Scottish English,56.9,-1.7,"",BI,BI,GB,L1t,ScE,77933,6033,0,"",17,5002242,5191030,yes
2,ELN_009,0.943292044104377,-0.962182316944588,0.0241982999937958,0.0145242559657176,ELN,Scottish English,56.9,-1.7,"",BI,BI,GB,L1t,ScE,77933,6033,0,"",17,5002242,5191030,yes
2,ELN_012,0.942969563947485,-0.961628724004096,0.0253605378382426,0.0127448007342033,ELN,Scottish English,56.9,-1.7,"",BI,BI,GB,L1t,ScE,77933,6033,0,"",17,5002242,5191030,yes
2,ELN_013,0.940512195946974,-0.961646422504058,0.0213916457128036,0.0129913837726271,ELN,Scottish English,56.9,-1.7,"",BI,BI,GB,L1t,ScE,77933,6033,0,"",17,5002242,5191030,yes
2,ELN_015,0.945184249683853,-0.962974922236808,0.0280877347380852,0.0171816540377148,ELN,Scottish English,56.9,-1.7,"",BI,BI,GB,L1t,ScE,77933,6033,0,"",17,5002242,5191030,yes
5,GLA_004,0.943284873758021,-0.963351960497325,0.0245031205358438,0.0147748590208789,GLA,Welsh English,52.3,-3.5,wels1248,BI,BI,GB,L1c,WelE,20779,6033,0,"",17,2668660,96856,yes
5,GLA_006,0.938985914518301,-0.963149364912895,0.0206508696923524,0.0145140013831439,GLA,Welsh English,52.3,-3.5,wels1248,BI,BI,GB,L1c,WelE,20779,6033,0,"",17,2668660,96856,yes
5,GLA_007,0.940010256870826,-0.961583753901682,0.0239483330877545,0.0140696867999773,GLA,Welsh English,52.3,-3.5,wels1248,BI,BI,GB,L1c,WelE,20779,6033,0,"",17,2668660,96856,yes
82,HEB_003,0.944399874988402,-0.963084346057528,0.0252429572766854,0.0129369719781969,HEB,Hebridean English,58.2,-6.3,"",BI,BI,GB,L1c,HebE,4712,6033,0,"",17,13720,11604,no
82,HEB_004,0.945418015736782,-0.9631079113999,0.0263371242988231,0.0144845226350781,HEB,Hebridean English,58.2,-6.3,"",BI,BI,GB,L1c,HebE,4712,6033,0,"",17,13720,11604,no
82,HEB_005,0.940843723246419,-0.961642877351604,0.0245198213103552,0.0119228575648986,HEB,Hebridean English,58.2,-6.3,"",BI,BI,GB,L1c,HebE,4712,6033,0,"",17,13720,11604,no
82,HEB_006,0.94420357329655,-0.963951605313404,0.0281539608812136,0.015730828082393,HEB,Hebridean English,58.2,-6.3,"",BI,BI,GB,L1c,HebE,4712,6033,0,"",17,13720,11604,no
82,HEB_009,0.941400176637632,-0.960557246532107,0.0250926659319924,0.0134310574812571,HEB,Hebridean English,58.2,-6.3,"",BI,BI,GB,L1c,HebE,4712,6033,0,"",17,13720,11604,no
82,HEB_011,0.944691651045604,-0.963341555231995,0.0232586142070895,0.0139714123530251,HEB,Hebridean English,58.2,-6.3,"",BI,BI,GB,L1c,HebE,4712,6033,0,"",17,13720,11604,no
82,HEB_012,0.944575832222748,-0.961263250646489,0.025442806349962,0.0135898063470787,HEB,Hebridean English,58.2,-6.3,"",BI,BI,GB,L1c,HebE,4712,6033,0,"",17,13720,11604,no
82,HEB_014,0.945933848599525,-0.963472744470403,0.025102301823707,0.0145491495765921,HEB,Hebridean English,58.2,-6.3,"",BI,BI,GB,L1c,HebE,4712,6033,0,"",17,13720,11604,no
82,HEB_019,0.944467494904671,-0.962641094236752,0.0268096838104725,0.0142388902636226,HEB,Hebridean English,58.2,-6.3,"",BI,BI,GB,L1c,HebE,4712,6033,0,"",17,13720,11604,no
82,HEB_021,0.942236866080895,-0.963132578318941,0.0233979665032876,0.0141405085188867,HEB,Hebridean English,58.2,-6.3,"",BI,BI,GB,L1c,HebE,4712,6033,0,"",17,13720,11604,no
82,HEB_022,0.945638602173844,-0.963586044139167,0.0265034899124521,0.0151609505613312,HEB,Hebridean English,58.2,-6.3,"",BI,BI,GB,L1c,HebE,4712,6033,0,"",17,13720,11604,no
82,HEB_027,0.943479511122192,-0.961617238172101,0.0262111218602196,0.0127425178061251,HEB,Hebridean English,58.2,-6.3,"",BI,BI,GB,L1c,HebE,4712,6033,0,"",17,13720,11604,no
82,HEB_035,0.946975240115086,-0.963750244140176,0.024561002253687,0.0138473890639143,HEB,Hebridean English,58.2,-6.3,"",BI,BI,GB,L1c,HebE,4712,6033,0,"",17,13720,11604,no
82,HEB_036,0.943253080193903,-0.963531350919879,0.0268801202131192,0.0151135854544632,HEB,Hebridean English,58.2,-6.3,"",BI,BI,GB,L1c,HebE,4712,6033,0,"",17,13720,11604,no
82,HEB_039,0.942911455926554,-0.961346122873205,0.0234624585766698,0.0128256310990312,HEB,Hebridean English,58.2,-6.3,"",BI,BI,GB,L1c,HebE,4712,6033,0,"",17,13720,11604,no
4,IOM_002,0.942878997852549,-0.962134938807799,0.0237330626323489,0.0132383754523671,IOM,Manx English,54.16,-4.57,manx1244,BI,BI,IM,L1c,ManxE,572,2107,0,"",2,7388,0,yes
9,KEN_002,0.943488798175597,-0.963380527968952,0.0253511449059252,0.0142423650534049,KEN,English dialects in the Southeast of England,51.1,0.6,"",BI,BI,GB,L1t,SE,19120,6033,0,"",17,1142549,152,yes
9,KEN_004,0.941036046513339,-0.963853524421703,0.0220072994790124,0.0147466886397023,KEN,English dialects in the Southeast of England,51.1,0.6,"",BI,BI,GB,L1t,SE,19120,6033,0,"",17,1142549,152,yes
9,KEN_010,0.940086976215715,-0.962604280217632,0.0209344432534861,0.0130977359742459,KEN,English dialects in the Southeast of England,51.1,0.6,"",BI,BI,GB,L1t,SE,19120,6033,0,"",17,1142549,152,yes
9,KEN_011,0.940582322748361,-0.963524246171987,0.0195955345809419,0.0146334127233416,KEN,English dialects in the Southeast of England,51.1,0.6,"",BI,BI,GB,L1t,SE,19120,6033,0,"",17,1142549,152,yes
6,LAN_005,0.948211278754136,-0.9633286936171,0.0271756922485129,0.0145584434353583,LAN,English dialects in the North of England,53.7,-1.7,"",BI,BI,GB,L1t,North,37331,6033,0,"",17,4197167,481,yes
6,LAN_013,0.93953151468922,-0.959438742258813,0.024092171855393,0.013483355529495,LAN,English dialects in the North of England,53.7,-1.7,"",BI,BI,GB,L1t,North,37331,6033,0,"",17,4197167,481,yes
6,LAN_014,0.945335996839784,-0.962967647738732,0.030261750523423,0.0172689110151157,LAN,English dialects in the North of England,53.7,-1.7,"",BI,BI,GB,L1t,North,37331,6033,0,"",17,4197167,481,yes
6,LAN_018,0.940757151272548,-0.961765228568187,0.0251798594050909,0.0137808995785345,LAN,English dialects in the North of England,53.7,-1.7,"",BI,BI,GB,L1t,North,37331,6033,0,"",17,4197167,481,yes
6,LAN_019,0.936291175607567,-0.963390824497208,0.0219020877297477,0.0165872410558837,LAN,English dialects in the North of England,53.7,-1.7,"",BI,BI,GB,L1t,North,37331,6033,0,"",17,4197167,481,yes
6,LAN_021,0.937627251316631,-0.961984661047409,0.0286780591398228,0.0149056352684787,LAN,English dialects in the North of England,53.7,-1.7,"",BI,BI,GB,L1t,North,37331,6033,0,"",17,4197167,481,yes
6,LAN_023,0.944587802544603,-0.963511317200804,0.0264081917252391,0.0154300897353079,LAN,English dialects in the North of England,53.7,-1.7,"",BI,BI,GB,L1t,North,37331,6033,0,"",17,4197167,481,yes
2,LKS_001,0.944174202738582,-0.962856047622441,0.0248102999321036,0.0148337386703189,LKS,Scottish English,56.9,-1.7,"",BI,BI,GB,L1t,ScE,77933,6033,0,"",17,5002242,5191030,yes
9,LND_001,0.945056666576967,-0.962408975148944,0.0280251079589821,0.0150254665508239,LND,English dialects in the Southeast of England,51.1,0.6,"",BI,BI,GB,L1t,SE,19120,6033,0,"",17,1142549,152,yes
9,LND_003,0.947360033681532,-0.961709260671383,0.0273278020943688,0.0141036606786722,LND,English dialects in the Southeast of England,51.1,0.6,"",BI,BI,GB,L1t,SE,19120,6033,0,"",17,1142549,152,yes
9,LND_004,0.94634165342173,-0.963702584513536,0.0305912872546017,0.0167612107909789,LND,English dialects in the Southeast of England,51.1,0.6,"",BI,BI,GB,L1t,SE,19120,6033,0,"",17,1142549,152,yes
9,LND_005,0.945572961641516,-0.963497619972302,0.0280627023694041,0.0145891254894279,LND,English dialects in the Southeast of England,51.1,0.6,"",BI,BI,GB,L1t,SE,19120,6033,0,"",17,1142549,152,yes
9,LND_006,0.939015541027529,-0.961670002221338,0.0223834927412368,0.0137569988203285,LND,English dialects in the Southeast of England,51.1,0.6,"",BI,BI,GB,L1t,SE,19120,6033,0,"",17,1142549,152,yes
9,LND_007,0.939937459518589,-0.962310123488917,0.0221195828119159,0.0141383131509049,LND,English dialects in the Southeast of England,51.1,0.6,"",BI,BI,GB,L1t,SE,19120,6033,0,"",17,1142549,152,yes
2,MLN_001,0.939958403417872,-0.963436449629221,0.0239817572149812,0.016331515250237,MLN,Scottish English,56.9,-1.7,"",BI,BI,GB,L1t,ScE,77933,6033,0,"",17,5002242,5191030,yes
2,MLN_002,0.939627094987792,-0.960847630184699,0.027173119129113,0.0156194934023768,MLN,Scottish English,56.9,-1.7,"",BI,BI,GB,L1t,ScE,77933,6033,0,"",17,5002242,5191030,yes
2,MLN_004,0.943443854486961,-0.96361481356598,0.0264700913693649,0.01624161130399,MLN,Scottish English,56.9,-1.7,"",BI,BI,GB,L1t,ScE,77933,6033,0,"",17,5002242,5191030,yes
2,MLN_005,0.942157076471797,-0.963174837927051,0.0243445187104914,0.0151045475983781,MLN,Scottish English,56.9,-1.7,"",BI,BI,GB,L1t,ScE,77933,6033,0,"",17,5002242,5191030,yes
6,NBL_003,0.944665430848116,-0.963949752194376,0.026399107163589,0.0147331550854621,NBL,English dialects in the North of England,53.7,-1.7,"",BI,BI,GB,L1t,North,37331,6033,0,"",17,4197167,481,yes
80,NTT_006,0.942405210337739,-0.982208761609029,0.0211586854772219,0.0246972850016777,NTT,English dialects in the Midlands,52.48,-1.89,"",BI,BI,GB,L1t,Mid,9778,6033,0,"",17,2154916,261,no
80,NTT_008,0.942173884116241,-0.963924896378048,0.02179524818546,0.013792531052485,NTT,English dialects in the Midlands,52.48,-1.89,"",BI,BI,GB,L1t,Mid,9778,6033,0,"",17,2154916,261,no
2,PEE_001,0.942935015232474,-0.963268261865188,0.0217644722275126,0.0140334454075061,PEE,Scottish English,56.9,-1.7,"",BI,BI,GB,L1t,ScE,77933,6033,0,"",17,5002242,5191030,yes
2,PER_001,0.943269334576823,-0.963203494137641,0.021705794354454,0.0137821825193856,PER,Scottish English,56.9,-1.7,"",BI,BI,GB,L1t,ScE,77933,6033,0,"",17,5002242,5191030,yes
2,PER_004,0.937424646654874,-0.960922057402985,0.0202612604428836,0.0130835610044964,PER,Scottish English,56.9,-1.7,"",BI,BI,GB,L1t,ScE,77933,6033,0,"",17,5002242,5191030,yes
2,PER_005,0.94386875319222,-0.962137624110095,0.023987931005656,0.0133823431026044,PER,Scottish English,56.9,-1.7,"",BI,BI,GB,L1t,ScE,77933,6033,0,"",17,5002242,5191030,yes
80,SAL_002,0.940801821219767,-0.962526614835867,0.0210464448776707,0.0136853767120781,SAL,English dialects in the Midlands,52.48,-1.89,"",BI,BI,GB,L1t,Mid,9778,6033,0,"",17,2154916,261,no
80,SAL_004,0.941380327955513,-0.963513486162514,0.0217295717637429,0.0139390698925058,SAL,English dialects in the Midlands,52.48,-1.89,"",BI,BI,GB,L1t,Mid,9778,6033,0,"",17,2154916,261,no
80,SAL_005,0.939843092294864,-0.960147735094912,0.0217202746482391,0.0129895811203985,SAL,English dialects in the Midlands,52.48,-1.89,"",BI,BI,GB,L1t,Mid,9778,6033,0,"",17,2154916,261,no
80,SAL_006,0.940701599478007,-0.961357830137397,0.022341355337285,0.0141087578342847,SAL,English dialects in the Midlands,52.48,-1.89,"",BI,BI,GB,L1t,Mid,9778,6033,0,"",17,2154916,261,no
80,SAL_007,0.946312272528268,-0.96310358645952,0.0244572584284599,0.0138971823117204,SAL,English dialects in the Midlands,52.48,-1.89,"",BI,BI,GB,L1t,Mid,9778,6033,0,"",17,2154916,261,no
80,SAL_008,0.942702736165767,-0.963847463886149,0.0245480656934279,0.0149207614726895,SAL,English dialects in the Midlands,52.48,-1.89,"",BI,BI,GB,L1t,Mid,9778,6033,0,"",17,2154916,261,no
80,SAL_009,0.944706831971908,-0.962010994179364,0.0253595309118797,0.0134239257727235,SAL,English dialects in the Midlands,52.48,-1.89,"",BI,BI,GB,L1t,Mid,9778,6033,0,"",17,2154916,261,no
80,SAL_010,0.942682189399628,-0.959772779388943,0.0227342636956371,0.0115781108804478,SAL,English dialects in the Midlands,52.48,-1.89,"",BI,BI,GB,L1t,Mid,9778,6033,0,"",17,2154916,261,no
80,SAL_012,0.942608435298294,-0.962324124468191,0.0243482680686617,0.0130438422165583,SAL,English dialects in the Midlands,52.48,-1.89,"",BI,BI,GB,L1t,Mid,9778,6033,0,"",17,2154916,261,no
80,SAL_013,0.939917695037189,-0.959923566180343,0.0214727304033786,0.012282536681292,SAL,English dialects in the Midlands,52.48,-1.89,"",BI,BI,GB,L1t,Mid,9778,6033,0,"",17,2154916,261,no
80,SAL_014,0.943321433169733,-0.961458797563052,0.0221788735236823,0.0129961132119886,SAL,English dialects in the Midlands,52.48,-1.89,"",BI,BI,GB,L1t,Mid,9778,6033,0,"",17,2154916,261,no
80,SAL_019,0.942282289959746,-0.963913204218137,0.0227014579101309,0.0136669984226455,SAL,English dialects in the Midlands,52.48,-1.89,"",BI,BI,GB,L1t,Mid,9778,6033,0,"",17,2154916,261,no
80,SAL_020,0.94294768960941,-0.962431704758983,0.0241524622664823,0.0149573737838918,SAL,English dialects in the Midlands,52.48,-1.89,"",BI,BI,GB,L1t,Mid,9778,6033,0,"",17,2154916,261,no
80,SAL_021,0.939442002714152,-0.961285522092284,0.021253393973577,0.0137161352217291,SAL,English dialects in the Midlands,52.48,-1.89,"",BI,BI,GB,L1t,Mid,9778,6033,0,"",17,2154916,261,no
80,SAL_023,0.934535096616756,-0.959609668365254,0.021419336293998,0.0135990590249532,SAL,English dialects in the Midlands,52.48,-1.89,"",BI,BI,GB,L1t,Mid,9778,6033,0,"",17,2154916,261,no
80,SAL_024,0.943690476177792,-0.96205323826444,0.0230551185116802,0.0125259626407717,SAL,English dialects in the Midlands,52.48,-1.89,"",BI,BI,GB,L1t,Mid,9778,6033,0,"",17,2154916,261,no
80,SAL_025,0.944383478180369,-0.962927235109446,0.0228740771448918,0.0134223805456764,SAL,English dialects in the Midlands,52.48,-1.89,"",BI,BI,GB,L1t,Mid,9778,6033,0,"",17,2154916,261,no
80,SAL_026,0.943603853669201,-0.96363078464045,0.0229185406697898,0.0139668610149789,SAL,English dialects in the Midlands,52.48,-1.89,"",BI,BI,GB,L1t,Mid,9778,6033,0,"",17,2154916,261,no
80,SAL_029,0.940912818215761,-0.960413653185855,0.0213419312690428,0.0122549745330374,SAL,English dialects in the Midlands,52.48,-1.89,"",BI,BI,GB,L1t,Mid,9778,6033,0,"",17,2154916,261,no
80,SAL_031,0.942330562163874,-0.960001307166676,0.0231511770567197,0.0127660780567815,SAL,English dialects in the Midlands,52.48,-1.89,"",BI,BI,GB,L1t,Mid,9778,6033,0,"",17,2154916,261,no
80,SAL_032,0.939052080340489,-0.958923425852317,0.0231891412337796,0.0130115097332363,SAL,English dialects in the Midlands,52.48,-1.89,"",BI,BI,GB,L1t,Mid,9778,6033,0,"",17,2154916,261,no
80,SAL_033,0.942688341724858,-0.96071207474079,0.0236815580793162,0.0128638273676302,SAL,English dialects in the Midlands,52.48,-1.89,"",BI,BI,GB,L1t,Mid,9778,6033,0,"",17,2154916,261,no
80,SAL_034,0.935285379799684,-0.961799061851891,0.021961493050304,0.0130953577880616,SAL,English dialects in the Midlands,52.48,-1.89,"",BI,BI,GB,L1t,Mid,9778,6033,0,"",17,2154916,261,no
80,SAL_037,0.940021277249335,-0.960237611372557,0.0213220359198652,0.0125713145626182,SAL,English dialects in the Midlands,52.48,-1.89,"",BI,BI,GB,L1t,Mid,9778,6033,0,"",17,2154916,261,no
80,SAL_038,0.944315861693771,-0.960489969562632,0.0209107509168338,0.0126204223121692,SAL,English dialects in the Midlands,52.48,-1.89,"",BI,BI,GB,L1t,Mid,9778,6033,0,"",17,2154916,261,no
80,SAL_039,0.941218369571671,-0.962556161811266,0.0201671388033132,0.0136637250211028,SAL,English dialects in the Midlands,52.48,-1.89,"",BI,BI,GB,L1t,Mid,9778,6033,0,"",17,2154916,261,no
2,SEL_001,0.940639140033274,-0.963569473762191,0.0214920837255081,0.0142279965956731,SEL,Scottish English,56.9,-1.7,"",BI,BI,GB,L1t,ScE,77933,6033,0,"",17,5002242,5191030,yes
2,SEL_003,0.945448689947493,-0.96143497701936,0.0248931498656148,0.0134165191008831,SEL,Scottish English,56.9,-1.7,"",BI,BI,GB,L1t,ScE,77933,6033,0,"",17,5002242,5191030,yes
9,SFK_001,0.944500188675813,-0.963606310416123,0.0226026764755579,0.0134774995279572,SFK,English dialects in the Southeast of England,51.1,0.6,"",BI,BI,GB,L1t,SE,19120,6033,0,"",17,1142549,152,yes
9,SFK_002,0.943404200864725,-0.963405248538384,0.0234007763309109,0.0142195409441902,SFK,English dialects in the Southeast of England,51.1,0.6,"",BI,BI,GB,L1t,SE,19120,6033,0,"",17,1142549,152,yes
9,SFK_003,0.941001264635632,-0.960849994823299,0.0222350963396052,0.0142764367318758,SFK,English dialects in the Southeast of England,51.1,0.6,"",BI,BI,GB,L1t,SE,19120,6033,0,"",17,1142549,152,yes
9,SFK_005,0.944638836292872,-0.963350600161712,0.0234822873457488,0.0136407651917897,SFK,English dialects in the Southeast of England,51.1,0.6,"",BI,BI,GB,L1t,SE,19120,6033,0,"",17,1142549,152,yes
9,SFK_006,0.942147300431437,-0.962083856690639,0.0235057317780041,0.0131350545500794,SFK,English dialects in the Southeast of England,51.1,0.6,"",BI,BI,GB,L1t,SE,19120,6033,0,"",17,1142549,152,yes
9,SFK_007,0.942910677742968,-0.963650953866904,0.0212505325107387,0.0143838314906892,SFK,English dialects in the Southeast of England,51.1,0.6,"",BI,BI,GB,L1t,SE,19120,6033,0,"",17,1142549,152,yes
9,SFK_008,0.945271134885305,-0.962860067567923,0.0218084895666084,0.0129739109538369,SFK,English dialects in the Southeast of England,51.1,0.6,"",BI,BI,GB,L1t,SE,19120,6033,0,"",17,1142549,152,yes
9,SFK_009,0.940933855683783,-0.962288215246822,0.0216568729575141,0.0132636710107133,SFK,English dialects in the Southeast of England,51.1,0.6,"",BI,BI,GB,L1t,SE,19120,6033,0,"",17,1142549,152,yes
9,SFK_010,0.941637905908114,-0.95981554164081,0.022176511905872,0.0125852354908857,SFK,English dialects in the Southeast of England,51.1,0.6,"",BI,BI,GB,L1t,SE,19120,6033,0,"",17,1142549,152,yes
9,SFK_011,0.939436247506637,-0.963849155895769,0.0231609567556097,0.0140037773105638,SFK,English dialects in the Southeast of England,51.1,0.6,"",BI,BI,GB,L1t,SE,19120,6033,0,"",17,1142549,152,yes
9,SFK_012,0.942077529201559,-0.962849549805623,0.0225415979426847,0.0135507911552026,SFK,English dialects in the Southeast of England,51.1,0.6,"",BI,BI,GB,L1t,SE,19120,6033,0,"",17,1142549,152,yes
9,SFK_013,0.942839396933962,-0.963413270689631,0.0240905804219957,0.0130812512221194,SFK,English dialects in the Southeast of England,51.1,0.6,"",BI,BI,GB,L1t,SE,19120,6033,0,"",17,1142549,152,yes
9,SFK_014,0.943819332444981,-0.962639278559324,0.024574227842609,0.0135331071981807,SFK,English dialects in the Southeast of England,51.1,0.6,"",BI,BI,GB,L1t,SE,19120,6033,0,"",17,1142549,152,yes
9,SFK_015,0.943700087510932,-0.962558542697133,0.0237457188568796,0.0127294812599383,SFK,English dialects in the Southeast of England,51.1,0.6,"",BI,BI,GB,L1t,SE,19120,6033,0,"",17,1142549,152,yes
9,SFK_016,0.944715364878332,-0.96320802561211,0.0238013292512924,0.0128345949381916,SFK,English dialects in the Southeast of England,51.1,0.6,"",BI,BI,GB,L1t,SE,19120,6033,0,"",17,1142549,152,yes
9,SFK_017,0.943112039259095,-0.962923696999205,0.0254454633972162,0.0145530738699477,SFK,English dialects in the Southeast of England,51.1,0.6,"",BI,BI,GB,L1t,SE,19120,6033,0,"",17,1142549,152,yes
9,SFK_018,0.940961614512554,-0.96122315999555,0.0219896674247666,0.0125829778677854,SFK,English dialects in the Southeast of England,51.1,0.6,"",BI,BI,GB,L1t,SE,19120,6033,0,"",17,1142549,152,yes
9,SFK_019,0.939045303417087,-0.96247010620746,0.0226629241911412,0.013137194473884,SFK,English dialects in the Southeast of England,51.1,0.6,"",BI,BI,GB,L1t,SE,19120,6033,0,"",17,1142549,152,yes
9,SFK_021,0.945076005163652,-0.963786128041367,0.0254742588572568,0.0142563592662788,SFK,English dialects in the Southeast of England,51.1,0.6,"",BI,BI,GB,L1t,SE,19120,6033,0,"",17,1142549,152,yes
9,SFK_023,0.945810381705219,-0.963644114625406,0.026553377092352,0.0150337326051079,SFK,English dialects in the Southeast of England,51.1,0.6,"",BI,BI,GB,L1t,SE,19120,6033,0,"",17,1142549,152,yes
9,SFK_024,0.945669565668628,-0.962659118825726,0.0249164279174443,0.0141229710878135,SFK,English dialects in the Southeast of England,51.1,0.6,"",BI,BI,GB,L1t,SE,19120,6033,0,"",17,1142549,152,yes
9,SFK_026,0.947139697386482,-0.962193528910635,0.0269731775177352,0.0142546304014742,SFK,English dialects in the Southeast of England,51.1,0.6,"",BI,BI,GB,L1t,SE,19120,6033,0,"",17,1142549,152,yes
9,SFK_027,0.942828243141347,-0.962103252669528,0.0222612492578554,0.0134681499845044,SFK,English dialects in the Southeast of England,51.1,0.6,"",BI,BI,GB,L1t,SE,19120,6033,0,"",17,1142549,152,yes
9,SFK_028,0.942873620341001,-0.962198236460223,0.0228537777681225,0.0140375435850197,SFK,English dialects in the Southeast of England,51.1,0.6,"",BI,BI,GB,L1t,SE,19120,6033,0,"",17,1142549,152,yes
9,SFK_029,0.945084752887371,-0.962950685586631,0.0272348436676257,0.014471569841483,SFK,English dialects in the Southeast of England,51.1,0.6,"",BI,BI,GB,L1t,SE,19120,6033,0,"",17,1142549,152,yes
9,SFK_030,0.943409567866149,-0.962538647616341,0.023002150960109,0.0129762555381757,SFK,English dialects in the Southeast of England,51.1,0.6,"",BI,BI,GB,L1t,SE,19120,6033,0,"",17,1142549,152,yes
9,SFK_031,0.943844837008208,-0.962438920749268,0.028112253666338,0.0140456021437371,SFK,English dialects in the Southeast of England,51.1,0.6,"",BI,BI,GB,L1t,SE,19120,6033,0,"",17,1142549,152,yes
9,SFK_032,0.942997378864752,-0.962276119607769,0.0226564611544911,0.0134300778422821,SFK,English dialects in the Southeast of England,51.1,0.6,"",BI,BI,GB,L1t,SE,19120,6033,0,"",17,1142549,152,yes
9,SFK_033,0.942759927197121,-0.960623041353975,0.0265262988912047,0.0127767291796788,SFK,English dialects in the Southeast of England,51.1,0.6,"",BI,BI,GB,L1t,SE,19120,6033,0,"",17,1142549,152,yes
9,SFK_034,0.946700613617462,-0.963665891409479,0.0236329454897239,0.0136572770046282,SFK,English dialects in the Southeast of England,51.1,0.6,"",BI,BI,GB,L1t,SE,19120,6033,0,"",17,1142549,152,yes
9,SFK_035,0.942819869004169,-0.961431744434862,0.026668534486608,0.0135952326492991,SFK,English dialects in the Southeast of England,51.1,0.6,"",BI,BI,GB,L1t,SE,19120,6033,0,"",17,1142549,152,yes
9,SFK_036,0.944650171410878,-0.962459670605496,0.0244735376582639,0.0133154065198998,SFK,English dialects in the Southeast of England,51.1,0.6,"",BI,BI,GB,L1t,SE,19120,6033,0,"",17,1142549,152,yes
9,SFK_037,0.945358893369443,-0.9624758647856,0.0247459941732394,0.0134825787706921,SFK,English dialects in the Southeast of England,51.1,0.6,"",BI,BI,GB,L1t,SE,19120,6033,0,"",17,1142549,152,yes
9,SFK_038,0.943894735489577,-0.962436490087065,0.0228519347106877,0.0131574592311257,SFK,English dialects in the Southeast of England,51.1,0.6,"",BI,BI,GB,L1t,SE,19120,6033,0,"",17,1142549,152,yes
9,SFK_039,0.943489529951735,-0.961536373999717,0.0264333838083633,0.0136031928114931,SFK,English dialects in the Southeast of England,51.1,0.6,"",BI,BI,GB,L1t,SE,19120,6033,0,"",17,1142549,152,yes
7,SOM_002,0.944504495132359,-0.963128012429672,0.0248038967554661,0.0134093573395674,SOM,English dialects in the Southwest of England,50.8,-4,"",BI,BI,GB,L1t,SW,9200,6033,0,"",17,1171642,89,yes
7,SOM_004,0.942388733911277,-0.962648969565589,0.0224524372971119,0.0138204641269433,SOM,English dialects in the Southwest of England,50.8,-4,"",BI,BI,GB,L1t,SW,9200,6033,0,"",17,1171642,89,yes
7,SOM_013,0.946804045580467,-0.963092180580992,0.0307983460343023,0.0162416739717806,SOM,English dialects in the Southwest of England,50.8,-4,"",BI,BI,GB,L1t,SW,9200,6033,0,"",17,1171642,89,yes
7,SOM_016,0.94147028415297,-0.963888752941367,0.021307711085389,0.0144568118521521,SOM,English dialects in the Southwest of England,50.8,-4,"",BI,BI,GB,L1t,SW,9200,6033,0,"",17,1171642,89,yes
7,SOM_017,0.943529518283097,-0.963819261437599,0.0237573861928645,0.0147631116103064,SOM,English dialects in the Southwest of England,50.8,-4,"",BI,BI,GB,L1t,SW,9200,6033,0,"",17,1171642,89,yes
7,SOM_023,0.944599130416863,-0.961542777914802,0.0240724040612275,0.0127060515427003,SOM,English dialects in the Southwest of England,50.8,-4,"",BI,BI,GB,L1t,SW,9200,6033,0,"",17,1171642,89,yes
7,SOM_024,0.94346474406191,-0.96243081820126,0.0225527202516938,0.0138949713586285,SOM,English dialects in the Southwest of England,50.8,-4,"",BI,BI,GB,L1t,SW,9200,6033,0,"",17,1171642,89,yes
7,SOM_025,0.947618624135449,-0.96330352144156,0.0255591226116722,0.0146195550847986,SOM,English dialects in the Southwest of England,50.8,-4,"",BI,BI,GB,L1t,SW,9200,6033,0,"",17,1171642,89,yes
7,SOM_026,0.944421906660029,-0.961769891073565,0.0246842777661476,0.0125082599444057,SOM,English dialects in the Southwest of England,50.8,-4,"",BI,BI,GB,L1t,SW,9200,6033,0,"",17,1171642,89,yes
7,SOM_027,0.945011186660783,-0.961919786809307,0.0267211639503704,0.0134400112487154,SOM,English dialects in the Southwest of England,50.8,-4,"",BI,BI,GB,L1t,SW,9200,6033,0,"",17,1171642,89,yes
7,SOM_028,0.945771665149568,-0.963499748304088,0.0246637060133531,0.0136069562391081,SOM,English dialects in the Southwest of England,50.8,-4,"",BI,BI,GB,L1t,SW,9200,6033,0,"",17,1171642,89,yes
7,SOM_029,0.943956363291832,-0.962182180295658,0.0267918554717531,0.0142383358098129,SOM,English dialects in the Southwest of England,50.8,-4,"",BI,BI,GB,L1t,SW,9200,6033,0,"",17,1171642,89,yes
7,SOM_030,0.945661492957482,-0.962286258347495,0.0280526552129217,0.0152187215038055,SOM,English dialects in the Southwest of England,50.8,-4,"",BI,BI,GB,L1t,SW,9200,6033,0,"",17,1171642,89,yes
7,SOM_031,0.945041096537347,-0.962443261351437,0.027190317164329,0.0150257040685698,SOM,English dialects in the Southwest of England,50.8,-4,"",BI,BI,GB,L1t,SW,9200,6033,0,"",17,1171642,89,yes
7,SOM_032,0.946193054312364,-0.963805110544022,0.0257203054951885,0.0146768720628039,SOM,English dialects in the Southwest of England,50.8,-4,"",BI,BI,GB,L1t,SW,9200,6033,0,"",17,1171642,89,yes
7,SOM_033,0.943294966144758,-0.963000381347022,0.0241261613454199,0.013897993100929,SOM,English dialects in the Southwest of England,50.8,-4,"",BI,BI,GB,L1t,SW,9200,6033,0,"",17,1171642,89,yes
7,SOM_034,0.942813119225457,-0.96310301972721,0.0258729536390913,0.0146442624825069,SOM,English dialects in the Southwest of England,50.8,-4,"",BI,BI,GB,L1t,SW,9200,6033,0,"",17,1171642,89,yes
7,SOM_035,0.945166502923159,-0.962651076087908,0.0266067302231825,0.0147380830720394,SOM,English dialects in the Southwest of England,50.8,-4,"",BI,BI,GB,L1t,SW,9200,6033,0,"",17,1171642,89,yes
7,SOM_036,0.944263113046429,-0.963610409412595,0.0271024835276636,0.014099667551605,SOM,English dialects in the Southwest of England,50.8,-4,"",BI,BI,GB,L1t,SW,9200,6033,0,"",17,1171642,89,yes
2,SUT_001,0.944470536981875,-0.962988302448157,0.0275749259371648,0.01283785762229,SUT,Scottish English,56.9,-1.7,"",BI,BI,GB,L1t,ScE,77933,6033,0,"",17,5002242,5191030,yes
2,SUT_002,0.943655586213982,-0.961785268572026,0.0235170683800758,0.0128717011631283,SUT,Scottish English,56.9,-1.7,"",BI,BI,GB,L1t,ScE,77933,6033,0,"",17,5002242,5191030,yes
6,WES_001,0.944053228256613,-0.962808612429324,0.0244170607907993,0.0134822401717868,WES,English dialects in the North of England,53.7,-1.7,"",BI,BI,GB,L1t,North,37331,6033,0,"",17,4197167,481,yes
6,WES_004,0.942635625636661,-0.963194771783321,0.0232805189373184,0.0142672143210872,WES,English dialects in the North of England,53.7,-1.7,"",BI,BI,GB,L1t,North,37331,6033,0,"",17,4197167,481,yes
6,WES_006,0.944846021096554,-0.963266675457252,0.0266890627523262,0.013984413660043,WES,English dialects in the North of England,53.7,-1.7,"",BI,BI,GB,L1t,North,37331,6033,0,"",17,4197167,481,yes
6,WES_007,0.943689648048563,-0.961280323158859,0.0252882955155728,0.0135254201332835,WES,English dialects in the North of England,53.7,-1.7,"",BI,BI,GB,L1t,North,37331,6033,0,"",17,4197167,481,yes
6,WES_008,0.942861097208585,-0.963577111387264,0.0240444827206326,0.0142684940740164,WES,English dialects in the North of England,53.7,-1.7,"",BI,BI,GB,L1t,North,37331,6033,0,"",17,4197167,481,yes
6,WES_011,0.945468834093104,-0.96192367929187,0.0275106327623304,0.0135574153686912,WES,English dialects in the North of England,53.7,-1.7,"",BI,BI,GB,L1t,North,37331,6033,0,"",17,4197167,481,yes
6,WES_012,0.941719187192679,-0.963185700301136,0.0232254487082439,0.0136986942376103,WES,English dialects in the North of England,53.7,-1.7,"",BI,BI,GB,L1t,North,37331,6033,0,"",17,4197167,481,yes
6,WES_013,0.944068829843957,-0.961440012851218,0.0249915665623739,0.0142678530768509,WES,English dialects in the North of England,53.7,-1.7,"",BI,BI,GB,L1t,North,37331,6033,0,"",17,4197167,481,yes
6,WES_014,0.940763512274306,-0.96274796133534,0.0228076640880495,0.0138553186181287,WES,English dialects in the North of England,53.7,-1.7,"",BI,BI,GB,L1t,North,37331,6033,0,"",17,4197167,481,yes
6,WES_015,0.942616514648177,-0.961446693604812,0.0252129003800062,0.0129956974004848,WES,English dialects in the North of England,53.7,-1.7,"",BI,BI,GB,L1t,North,37331,6033,0,"",17,4197167,481,yes
6,WES_016,0.943691694982558,-0.960813333461696,0.0250898678435708,0.0126466959546326,WES,English dialects in the North of England,53.7,-1.7,"",BI,BI,GB,L1t,North,37331,6033,0,"",17,4197167,481,yes
6,WES_017,0.941684000349381,-0.963275459682686,0.0233391960292756,0.0140215184571997,WES,English dialects in the North of England,53.7,-1.7,"",BI,BI,GB,L1t,North,37331,6033,0,"",17,4197167,481,yes
6,WES_018,0.943576859013563,-0.963489562475508,0.0256244525587453,0.0150752656041193,WES,English dialects in the North of England,53.7,-1.7,"",BI,BI,GB,L1t,North,37331,6033,0,"",17,4197167,481,yes
6,WES_019,0.943824073871513,-0.962065278831168,0.025774813686285,0.0147210233931553,WES,English dialects in the North of England,53.7,-1.7,"",BI,BI,GB,L1t,North,37331,6033,0,"",17,4197167,481,yes
7,WIL_009,0.942114839424266,-0.961530367807568,0.021924351445187,0.0139713718325899,WIL,English dialects in the Southwest of England,50.8,-4,"",BI,BI,GB,L1t,SW,9200,6033,0,"",17,1171642,89,yes
7,WIL_011,0.944513768200869,-0.962085199133597,0.0282767814981135,0.015734263559239,WIL,English dialects in the Southwest of England,50.8,-4,"",BI,BI,GB,L1t,SW,9200,6033,0,"",17,1171642,89,yes
7,WIL_013,0.943813595570821,-0.96345847913381,0.0273722068108522,0.0145351881873495,WIL,English dialects in the Southwest of England,50.8,-4,"",BI,BI,GB,L1t,SW,9200,6033,0,"",17,1171642,89,yes
7,WIL_015,0.939726878310698,-0.962750984894192,0.024269712578601,0.0143520945009946,WIL,English dialects in the Southwest of England,50.8,-4,"",BI,BI,GB,L1t,SW,9200,6033,0,"",17,1171642,89,yes
2,WLN_001,0.942276436237071,-0.962877089903649,0.025324598389534,0.0154942789121636,WLN,Scottish English,56.9,-1.7,"",BI,BI,GB,L1t,ScE,77933,6033,0,"",17,5002242,5191030,yes
6,YKS_003,0.943276975380312,-0.960784759424151,0.0244403909422984,0.0130772238478449,YKS,English dialects in the North of England,53.7,-1.7,"",BI,BI,GB,L1t,North,37331,6033,0,"",17,4197167,481,yes
6,YKS_004,0.944288968845955,-0.963544873746703,0.0277039942355601,0.0138754347686208,YKS,English dialects in the North of England,53.7,-1.7,"",BI,BI,GB,L1t,North,37331,6033,0,"",17,4197167,481,yes
6,YKS_005,0.945256389889962,-0.962155414294118,0.0296967738612136,0.0139728879037015,YKS,English dialects in the North of England,53.7,-1.7,"",BI,BI,GB,L1t,North,37331,6033,0,"",17,4197167,481,yes
6,YKS_011,0.944348187899554,-0.963429202593449,0.0299942021680468,0.0158461128904061,YKS,English dialects in the North of England,53.7,-1.7,"",BI,BI,GB,L1t,North,37331,6033,0,"",17,4197167,481,yes
46,EA014,0.941343910483386,-0.983718650887345,0.0327120924544178,0.0241744261151715,EA,Kenyan English,-1.4,36.91,keny1281,Af,Af,KE,L2,KenE,569140,-351,2,Kiswahili/Kikuyu,78,2650281,341886210,yes
46,EA024,0.933618969879424,-0.999323475189209,0.0194297534110796,0.0248717877344645,EA,Kenyan English,-1.4,36.91,keny1281,Af,Af,KE,L2,KenE,569140,-351,2,Kiswahili/Kikuyu,78,2650281,341886210,yes
46,EA026,0.937257467576207,-0.985052871582147,0.0271941024175525,0.0187281420279633,EA,Kenyan English,-1.4,36.91,keny1281,Af,Af,KE,L2,KenE,569140,-351,2,Kiswahili/Kikuyu,78,2650281,341886210,yes
46,EA027,0.941721984863838,-0.983605593596429,0.0252749205136643,0.0228529086733871,EA,Kenyan English,-1.4,36.91,keny1281,Af,Af,KE,L2,KenE,569140,-351,2,Kiswahili/Kikuyu,78,2650281,341886210,yes
46,EA028,0.934282257905283,-0.983913136972479,0.0238025281837798,0.0221326306064864,EA,Kenyan English,-1.4,36.91,keny1281,Af,Af,KE,L2,KenE,569140,-351,2,Kiswahili/Kikuyu,78,2650281,341886210,yes
46,EA029,0.933118219709452,-0.988866081834034,0.0271192039093419,0.0230759284481606,EA,Kenyan English,-1.4,36.91,keny1281,Af,Af,KE,L2,KenE,569140,-351,2,Kiswahili/Kikuyu,78,2650281,341886210,yes
39,GH006,0.946333684247528,-0.985585311698005,0.028157876567067,0.0246025280506374,GH,Ghanaian English,7.36,-1.42,ghan1247,Af,Af,GH,L2,GhE,227533,-381,2,Akan/Ewe,90,1407632,16713508,yes
39,GH035,0.948582985346265,-0.987471850451149,0.0337298983069813,0.0237932848479531,GH,Ghanaian English,7.36,-1.42,ghan1247,Af,Af,GH,L2,GhE,227533,-381,2,Akan/Ewe,90,1407632,16713508,yes
56,HK012,0.949844762856166,-0.982437625239781,0.0357920305072455,0.0204384699204489,HK,Hong Kong English,22.26,114.25,hong1245,As,As,HK,L2,HKE,1073,-2599,1,Cantonese,4,330782,3323559,yes
56,HK029,0.950811804843899,-0.983910416249937,0.0383934620699084,0.0217303179658215,HK,Hong Kong English,22.26,114.25,hong1245,As,As,HK,L2,HKE,1073,-2599,1,Cantonese,4,330782,3323559,yes
56,HK046,0.952800030260561,-0.98535897207372,0.0373551320255101,0.0229586072102,HK,Hong Kong English,22.26,114.25,hong1245,As,As,HK,L2,HKE,1073,-2599,1,Cantonese,4,330782,3323559,yes
56,HK068,0.951258280628361,-0.983774316156313,0.0375868392352258,0.0215639828106391,HK,Hong Kong English,22.26,114.25,hong1245,As,As,HK,L2,HKE,1073,-2599,1,Cantonese,4,330782,3323559,yes
26,JAM014,0.94499271533324,-0.98172440164284,0.0344241415887834,0.0145252600913491,JAM,Jamaican English,17.97,-76.64,jama1265,Ca,Ca,JM,L2,JamE,10831,-3.7,0,"",1,282770,2403541,yes
26,JAM016,0.943099552332488,-0.981998879903546,0.027642973888548,0.0151857374478399,JAM,Jamaican English,17.97,-76.64,jama1265,Ca,Ca,JM,L2,JamE,10831,-3.7,0,"",1,282770,2403541,yes
26,JAM021,0.941653968529274,-0.982495820197991,0.039850782578676,0.020144520203985,JAM,Jamaican English,17.97,-76.64,jama1265,Ca,Ca,JM,L2,JamE,10831,-3.7,0,"",1,282770,2403541,yes
26,JAM022,0.948213575963823,-0.983900072361702,0.0340190148325809,0.0206267927390625,JAM,Jamaican English,17.97,-76.64,jama1265,Ca,Ca,JM,L2,JamE,10831,-3.7,0,"",1,282770,2403541,yes
26,JAM038,0.949275912648215,-0.982906327648872,0.0306854768327347,0.0165511161529116,JAM,Jamaican English,17.97,-76.64,jama1265,Ca,Ca,JM,L2,JamE,10831,-3.7,0,"",1,282770,2403541,yes
26,JAM039,0.945170178808101,-0.982584730017353,0.0350423032840257,0.0183370388820882,JAM,Jamaican English,17.97,-76.64,jama1265,Ca,Ca,JM,L2,JamE,10831,-3.7,0,"",1,282770,2403541,yes
26,JAM040,0.943563427490965,-0.984814256780152,0.0336707397845607,0.0199565086064469,JAM,Jamaican English,17.97,-76.64,jama1265,Ca,Ca,JM,L2,JamE,10831,-3.7,0,"",1,282770,2403541,yes
26,JAM043,0.940856481471491,-0.982007883399339,0.036017518105181,0.0144872711687337,JAM,Jamaican English,17.97,-76.64,jama1265,Ca,Ca,JM,L2,JamE,10831,-3.7,0,"",1,282770,2403541,yes
26,JAM047,0.944252053740504,-0.981523149521424,0.0408907129076376,0.0179186756175139,JAM,Jamaican English,17.97,-76.64,jama1265,Ca,Ca,JM,L2,JamE,10831,-3.7,0,"",1,282770,2403541,yes
26,JAM048,0.937678921749744,-0.983714894429669,0.0240022814485703,0.0246550169113181,JAM,Jamaican English,17.97,-76.64,jama1265,Ca,Ca,JM,L2,JamE,10831,-3.7,0,"",1,282770,2403541,yes
26,JAM053,0.944325199265458,-0.982182400206423,0.0334952993397939,0.0136877926787402,JAM,Jamaican English,17.97,-76.64,jama1265,Ca,Ca,JM,L2,JamE,10831,-3.7,0,"",1,282770,2403541,yes
26,JAM059,0.942701066880246,-0.987855447208312,0.0296979651219693,0.0217241041196058,JAM,Jamaican English,17.97,-76.64,jama1265,Ca,Ca,JM,L2,JamE,10831,-3.7,0,"",1,282770,2403541,yes
26,JAM060,0.940930320408101,-0.982966464357601,0.0297032370525643,0.0224681799767003,JAM,Jamaican English,17.97,-76.64,jama1265,Ca,Ca,JM,L2,JamE,10831,-3.7,0,"",1,282770,2403541,yes
26,JAM066,0.94816389518964,-0.98196151600885,0.0319922668682349,0.0156824621025492,JAM,Jamaican English,17.97,-76.64,jama1265,Ca,Ca,JM,L2,JamE,10831,-3.7,0,"",1,282770,2403541,yes
26,JAM068,0.940877719630562,-0.982469236346651,0.0334974212425937,0.0143649555748036,JAM,Jamaican English,17.97,-76.64,jama1265,Ca,Ca,JM,L2,JamE,10831,-3.7,0,"",1,282770,2403541,yes
26,JAM087,0.943916553409779,-0.985269240763641,0.0326307867963741,0.0235031926343249,JAM,Jamaican English,17.97,-76.64,jama1265,Ca,Ca,JM,L2,JamE,10831,-3.7,0,"",1,282770,2403541,yes
26,JAM089,0.94536616348755,-0.981585029117182,0.0310965401004517,0.0196893921174267,JAM,Jamaican English,17.97,-76.64,jama1265,Ca,Ca,JM,L2,JamE,10831,-3.7,0,"",1,282770,2403541,yes
81,TT001,0.9386287512297,-0.983970687334961,0.0357210068342262,0.0252325700947476,TT,Trinidadian English,10.65,-61.47,trin1276,Ca,Ca,TT,L2,TTE,5128,885,0,"",3,1278000,222000,no
81,TT007,0.953307605110637,-0.991517418525159,0.0397235995975648,0.0285083261672134,TT,Trinidadian English,10.65,-61.47,trin1276,Ca,Ca,TT,L2,TTE,5128,885,0,"",3,1278000,222000,no
81,TT012,0.936667830868839,-0.986905537257235,0.0427474190513885,0.0233668338468109,TT,Trinidadian English,10.65,-61.47,trin1276,Ca,Ca,TT,L2,TTE,5128,885,0,"",3,1278000,222000,no
81,TT015,0.936139037289984,-0.984586766125772,0.0387844248149587,0.021195832436272,TT,Trinidadian English,10.65,-61.47,trin1276,Ca,Ca,TT,L2,TTE,5128,885,0,"",3,1278000,222000,no
81,TT023,0.943619295039993,-0.982032119915573,0.0384204385686666,0.0167446041829816,TT,Trinidadian English,10.65,-61.47,trin1276,Ca,Ca,TT,L2,TTE,5128,885,0,"",3,1278000,222000,no
81,TT025,0.938692145663117,-0.982557092988409,0.035371411923424,0.0203440170480295,TT,Trinidadian English,10.65,-61.47,trin1276,Ca,Ca,TT,L2,TTE,5128,885,0,"",3,1278000,222000,no
81,TT026,0.936618233543785,-0.984720990454241,0.0326109646671161,0.0190283490592762,TT,Trinidadian English,10.65,-61.47,trin1276,Ca,Ca,TT,L2,TTE,5128,885,0,"",3,1278000,222000,no
81,TT059,0.948008894542013,-0.98166034045552,0.0367503624294544,0.0240335615437686,TT,Trinidadian English,10.65,-61.47,trin1276,Ca,Ca,TT,L2,TTE,5128,885,0,"",3,1278000,222000,no
81,TT072,0.942361398448123,-0.98316193023163,0.035793955339915,0.0211426562079721,TT,Trinidadian English,10.65,-61.47,trin1276,Ca,Ca,TT,L2,TTE,5128,885,0,"",3,1278000,222000,no
81,TT077,0.939594111712388,-0.988601400505858,0.0211674957619797,0.0215572251645031,TT,Trinidadian English,10.65,-61.47,trin1276,Ca,Ca,TT,L2,TTE,5128,885,0,"",3,1278000,222000,no
81,TT078,0.945163566531212,-0.982912836941976,0.0352001076418055,0.0213473847504511,TT,Trinidadian English,10.65,-61.47,trin1276,Ca,Ca,TT,L2,TTE,5128,885,0,"",3,1278000,222000,no
81,TT079,0.939569894669173,-0.981773967856574,0.0280947856408369,0.0224488168601937,TT,Trinidadian English,10.65,-61.47,trin1276,Ca,Ca,TT,L2,TTE,5128,885,0,"",3,1278000,222000,no
81,TT081,0.938091210752852,-0.987918544513961,0.0334628624578842,0.0212729781724176,TT,Trinidadian English,10.65,-61.47,trin1276,Ca,Ca,TT,L2,TTE,5128,885,0,"",3,1278000,222000,no
81,TT083,0.942984057481731,-0.982386209070644,0.0385328804968339,0.0170979399724158,TT,Trinidadian English,10.65,-61.47,trin1276,Ca,Ca,TT,L2,TTE,5128,885,0,"",3,1278000,222000,no
81,TT087,0.944090906340425,-0.985427132275339,0.0300687143340768,0.0254915208543983,TT,Trinidadian English,10.65,-61.47,trin1276,Ca,Ca,TT,L2,TTE,5128,885,0,"",3,1278000,222000,no
14,SBC001,0.9324561563814,-0.956219214796815,0.0171204513718256,0.0138858730955843,SBC,Colloquial American English,39.1,-101.8,"",Am,Am,US,L1c,CollAmE,9147593,3723,1,Spanish,161,241032343,51369809,yes
14,SBC002,0.927678610473632,-0.945855915817462,0.017108343133178,0.0128007362956371,SBC,Colloquial American English,39.1,-101.8,"",Am,Am,US,L1c,CollAmE,9147593,3723,1,Spanish,161,241032343,51369809,yes
14,SBC003,0.932115126925266,-0.943317294414565,0.019016604028528,0.0128649507199577,SBC,Colloquial American English,39.1,-101.8,"",Am,Am,US,L1c,CollAmE,9147593,3723,1,Spanish,161,241032343,51369809,yes
14,SBC004,0.926689178270552,-0.956654522451852,0.01543484785349,0.0143805608793913,SBC,Colloquial American English,39.1,-101.8,"",Am,Am,US,L1c,CollAmE,9147593,3723,1,Spanish,161,241032343,51369809,yes
14,SBC005,0.929085112138487,-0.949156192245428,0.0176213756694814,0.0127710137473793,SBC,Colloquial American English,39.1,-101.8,"",Am,Am,US,L1c,CollAmE,9147593,3723,1,Spanish,161,241032343,51369809,yes
14,SBC006,0.925804477736788,-0.948200445687078,0.0164382752286095,0.0136398482689658,SBC,Colloquial American English,39.1,-101.8,"",Am,Am,US,L1c,CollAmE,9147593,3723,1,Spanish,161,241032343,51369809,yes
14,SBC007,0.929740571632735,-0.946025745922403,0.0171925783392089,0.0127953518818189,SBC,Colloquial American English,39.1,-101.8,"",Am,Am,US,L1c,CollAmE,9147593,3723,1,Spanish,161,241032343,51369809,yes
14,SBC008,0.929043434703398,-0.962397396473787,0.0166479931073839,0.0179866075335589,SBC,Colloquial American English,39.1,-101.8,"",Am,Am,US,L1c,CollAmE,9147593,3723,1,Spanish,161,241032343,51369809,yes
14,SBC009,0.937190206600941,-0.959148278149902,0.0179031905273021,0.0210650404850587,SBC,Colloquial American English,39.1,-101.8,"",Am,Am,US,L1c,CollAmE,9147593,3723,1,Spanish,161,241032343,51369809,yes
14,SBC010,0.930568958973341,-0.957943281216116,0.0171778108597656,0.0156783968536506,SBC,Colloquial American English,39.1,-101.8,"",Am,Am,US,L1c,CollAmE,9147593,3723,1,Spanish,161,241032343,51369809,yes
14,SBC011,0.930951037804526,-0.944847716433931,0.0175821567307809,0.0118266598303083,SBC,Colloquial American English,39.1,-101.8,"",Am,Am,US,L1c,CollAmE,9147593,3723,1,Spanish,161,241032343,51369809,yes
14,SBC012,0.926555133094848,-0.951499827931496,0.0185413970717774,0.0159485394716409,SBC,Colloquial American English,39.1,-101.8,"",Am,Am,US,L1c,CollAmE,9147593,3723,1,Spanish,161,241032343,51369809,yes
14,SBC013,0.93322216259915,-0.941718573688607,0.0175215813277472,0.0116967704345722,SBC,Colloquial American English,39.1,-101.8,"",Am,Am,US,L1c,CollAmE,9147593,3723,1,Spanish,161,241032343,51369809,yes
14,SBC014,0.921638102389036,-0.959682285260484,0.0135937974101365,0.0153720785053881,SBC,Colloquial American English,39.1,-101.8,"",Am,Am,US,L1c,CollAmE,9147593,3723,1,Spanish,161,241032343,51369809,yes
14,SBC015,0.927652203012887,-0.957010460002069,0.0165449434474984,0.0165222046855308,SBC,Colloquial American English,39.1,-101.8,"",Am,Am,US,L1c,CollAmE,9147593,3723,1,Spanish,161,241032343,51369809,yes
14,SBC016,0.927579253292093,-0.952388271733143,0.0165978695974345,0.0135715170071424,SBC,Colloquial American English,39.1,-101.8,"",Am,Am,US,L1c,CollAmE,9147593,3723,1,Spanish,161,241032343,51369809,yes
14,SBC017,0.925703348938034,-0.960022822178925,0.0161380237695804,0.016674786703947,SBC,Colloquial American English,39.1,-101.8,"",Am,Am,US,L1c,CollAmE,9147593,3723,1,Spanish,161,241032343,51369809,yes
14,SBC018,0.927835959674124,-0.948390857755723,0.0163560357360014,0.0126613042566166,SBC,Colloquial American English,39.1,-101.8,"",Am,Am,US,L1c,CollAmE,9147593,3723,1,Spanish,161,241032343,51369809,yes
14,SBC019,0.928847539990688,-0.940964984207355,0.0182335548418305,0.0117297104057718,SBC,Colloquial American English,39.1,-101.8,"",Am,Am,US,L1c,CollAmE,9147593,3723,1,Spanish,161,241032343,51369809,yes
14,SBC020,0.925179986158442,-0.959187189025776,0.0164843757226352,0.0162668672593953,SBC,Colloquial American English,39.1,-101.8,"",Am,Am,US,L1c,CollAmE,9147593,3723,1,Spanish,161,241032343,51369809,yes
14,SBC021,0.925987489290995,-0.949349114560922,0.0162012270407405,0.0150197755821581,SBC,Colloquial American English,39.1,-101.8,"",Am,Am,US,L1c,CollAmE,9147593,3723,1,Spanish,161,241032343,51369809,yes
14,SBC022,0.92810550544789,-0.95666749511831,0.0155397309168067,0.0152051117530347,SBC,Colloquial American English,39.1,-101.8,"",Am,Am,US,L1c,CollAmE,9147593,3723,1,Spanish,161,241032343,51369809,yes
14,SBC023,0.925103223681031,-0.950784883576542,0.0160929123387869,0.0132605186512902,SBC,Colloquial American English,39.1,-101.8,"",Am,Am,US,L1c,CollAmE,9147593,3723,1,Spanish,161,241032343,51369809,yes
14,SBC024,0.936189581080268,-0.948494311116063,0.0187493274609896,0.0146596375561239,SBC,Colloquial American English,39.1,-101.8,"",Am,Am,US,L1c,CollAmE,9147593,3723,1,Spanish,161,241032343,51369809,yes
14,SBC025,0.92399596302268,-0.952741202195264,0.016616477989921,0.0140462669528652,SBC,Colloquial American English,39.1,-101.8,"",Am,Am,US,L1c,CollAmE,9147593,3723,1,Spanish,161,241032343,51369809,yes
14,SBC027,0.928297616046377,-0.953956545350603,0.0164440966569841,0.01828683260918,SBC,Colloquial American English,39.1,-101.8,"",Am,Am,US,L1c,CollAmE,9147593,3723,1,Spanish,161,241032343,51369809,yes
14,SBC028,0.931833448154439,-0.948378731712627,0.0178401100314821,0.012667144528388,SBC,Colloquial American English,39.1,-101.8,"",Am,Am,US,L1c,CollAmE,9147593,3723,1,Spanish,161,241032343,51369809,yes
14,SBC029,0.929852396889604,-0.952221691880023,0.0165042047165918,0.0151725850826176,SBC,Colloquial American English,39.1,-101.8,"",Am,Am,US,L1c,CollAmE,9147593,3723,1,Spanish,161,241032343,51369809,yes
14,SBC030,0.923442450342729,-0.954060268113127,0.0153047841700422,0.0141683708250267,SBC,Colloquial American English,39.1,-101.8,"",Am,Am,US,L1c,CollAmE,9147593,3723,1,Spanish,161,241032343,51369809,yes
14,SBC031,0.931357867025169,-0.942750342349662,0.0168094888013216,0.0114240110091537,SBC,Colloquial American English,39.1,-101.8,"",Am,Am,US,L1c,CollAmE,9147593,3723,1,Spanish,161,241032343,51369809,yes
14,SBC032,0.92749393963335,-0.946212395183376,0.0168257820102723,0.0125974627520996,SBC,Colloquial American English,39.1,-101.8,"",Am,Am,US,L1c,CollAmE,9147593,3723,1,Spanish,161,241032343,51369809,yes
14,SBC033,0.931627001750071,-0.951980149508144,0.0181080282943047,0.0174788235313395,SBC,Colloquial American English,39.1,-101.8,"",Am,Am,US,L1c,CollAmE,9147593,3723,1,Spanish,161,241032343,51369809,yes
14,SBC034,0.930253345060209,-0.944266191500997,0.0166281742421256,0.0120556745058697,SBC,Colloquial American English,39.1,-101.8,"",Am,Am,US,L1c,CollAmE,9147593,3723,1,Spanish,161,241032343,51369809,yes
14,SBC035,0.924712138291161,-0.950575823104742,0.0159322889918835,0.0142300514991427,SBC,Colloquial American English,39.1,-101.8,"",Am,Am,US,L1c,CollAmE,9147593,3723,1,Spanish,161,241032343,51369809,yes
14,SBC036,0.929753694742971,-0.957252238315514,0.0158467665268811,0.0166326166432113,SBC,Colloquial American English,39.1,-101.8,"",Am,Am,US,L1c,CollAmE,9147593,3723,1,Spanish,161,241032343,51369809,yes
14,SBC037,0.933449523183186,-0.943900664720256,0.0182358728019942,0.0122941186124921,SBC,Colloquial American English,39.1,-101.8,"",Am,Am,US,L1c,CollAmE,9147593,3723,1,Spanish,161,241032343,51369809,yes
14,SBC038,0.92341994442994,-0.95665579337678,0.0150587090982906,0.0164186710880664,SBC,Colloquial American English,39.1,-101.8,"",Am,Am,US,L1c,CollAmE,9147593,3723,1,Spanish,161,241032343,51369809,yes
14,SBC039,0.926344187937999,-0.954265730435345,0.0163331606278957,0.0150977391146598,SBC,Colloquial American English,39.1,-101.8,"",Am,Am,US,L1c,CollAmE,9147593,3723,1,Spanish,161,241032343,51369809,yes
14,SBC040,0.920053574395715,-0.957479571908038,0.0129838006262345,0.0135369954455151,SBC,Colloquial American English,39.1,-101.8,"",Am,Am,US,L1c,CollAmE,9147593,3723,1,Spanish,161,241032343,51369809,yes
14,SBC041,0.926438512178457,-0.950761754079402,0.0154808943441443,0.0132063371605155,SBC,Colloquial American English,39.1,-101.8,"",Am,Am,US,L1c,CollAmE,9147593,3723,1,Spanish,161,241032343,51369809,yes
14,SBC042,0.932341833734083,-0.943433686908907,0.0162661875295841,0.0109982163429617,SBC,Colloquial American English,39.1,-101.8,"",Am,Am,US,L1c,CollAmE,9147593,3723,1,Spanish,161,241032343,51369809,yes
14,SBC043,0.924427518127322,-0.954553940997946,0.0141536824781118,0.0151809659364862,SBC,Colloquial American English,39.1,-101.8,"",Am,Am,US,L1c,CollAmE,9147593,3723,1,Spanish,161,241032343,51369809,yes
14,SBC044,0.925927232021312,-0.958797648874502,0.0143041926557842,0.014350867506527,SBC,Colloquial American English,39.1,-101.8,"",Am,Am,US,L1c,CollAmE,9147593,3723,1,Spanish,161,241032343,51369809,yes
14,SBC045,0.926592034827144,-0.951071441121175,0.0160501356216717,0.0142915723978161,SBC,Colloquial American English,39.1,-101.8,"",Am,Am,US,L1c,CollAmE,9147593,3723,1,Spanish,161,241032343,51369809,yes
14,SBC046,0.927161197852207,-0.963761166110408,0.0144367661023873,0.0182656836025396,SBC,Colloquial American English,39.1,-101.8,"",Am,Am,US,L1c,CollAmE,9147593,3723,1,Spanish,161,241032343,51369809,yes
14,SBC047,0.927814838028121,-0.951723088626665,0.0158404239892671,0.014742434772072,SBC,Colloquial American English,39.1,-101.8,"",Am,Am,US,L1c,CollAmE,9147593,3723,1,Spanish,161,241032343,51369809,yes
14,SBC048,0.937891572609337,-0.943004017092409,0.0196738292990281,0.0123126813005073,SBC,Colloquial American English,39.1,-101.8,"",Am,Am,US,L1c,CollAmE,9147593,3723,1,Spanish,161,241032343,51369809,yes
14,SBC049,0.928155624457087,-0.945699923091351,0.0169292057668607,0.0119209847958657,SBC,Colloquial American English,39.1,-101.8,"",Am,Am,US,L1c,CollAmE,9147593,3723,1,Spanish,161,241032343,51369809,yes
14,SBC050,0.932931724619044,-0.943255818812257,0.0168057846581055,0.0116294981896693,SBC,Colloquial American English,39.1,-101.8,"",Am,Am,US,L1c,CollAmE,9147593,3723,1,Spanish,161,241032343,51369809,yes
14,SBC051,0.930310292937992,-0.945468387841435,0.0172850894131717,0.0123777156895773,SBC,Colloquial American English,39.1,-101.8,"",Am,Am,US,L1c,CollAmE,9147593,3723,1,Spanish,161,241032343,51369809,yes
14,SBC052,0.926948166939478,-0.950304262532469,0.0157811847675255,0.0137202510456276,SBC,Colloquial American English,39.1,-101.8,"",Am,Am,US,L1c,CollAmE,9147593,3723,1,Spanish,161,241032343,51369809,yes
14,SBC053,0.924069029613532,-0.954374646791517,0.0157065069027084,0.0146093726883837,SBC,Colloquial American English,39.1,-101.8,"",Am,Am,US,L1c,CollAmE,9147593,3723,1,Spanish,161,241032343,51369809,yes
14,SBC054,0.924735864608663,-0.954515816511259,0.0152312804731694,0.0141885083264426,SBC,Colloquial American English,39.1,-101.8,"",Am,Am,US,L1c,CollAmE,9147593,3723,1,Spanish,161,241032343,51369809,yes
14,SBC055,0.923795286802873,-0.946711458485957,0.0162151003275205,0.0127487094939753,SBC,Colloquial American English,39.1,-101.8,"",Am,Am,US,L1c,CollAmE,9147593,3723,1,Spanish,161,241032343,51369809,yes
14,SBC056,0.927118500639405,-0.943094101015532,0.0165944956907827,0.0112353837214635,SBC,Colloquial American English,39.1,-101.8,"",Am,Am,US,L1c,CollAmE,9147593,3723,1,Spanish,161,241032343,51369809,yes
14,SBC057,0.930545642503395,-0.946696240093717,0.0163216476860647,0.0125315432466924,SBC,Colloquial American English,39.1,-101.8,"",Am,Am,US,L1c,CollAmE,9147593,3723,1,Spanish,161,241032343,51369809,yes
14,SBC058,0.931735613070589,-0.944011405678335,0.0172137724494016,0.0125191924721059,SBC,Colloquial American English,39.1,-101.8,"",Am,Am,US,L1c,CollAmE,9147593,3723,1,Spanish,161,241032343,51369809,yes
14,SBC059,0.929290889919332,-0.946028535676214,0.0167153280703813,0.0133609712326349,SBC,Colloquial American English,39.1,-101.8,"",Am,Am,US,L1c,CollAmE,9147593,3723,1,Spanish,161,241032343,51369809,yes
14,SBC060,0.923148429821823,-0.95513927092132,0.0147715952975201,0.0137917591748919,SBC,Colloquial American English,39.1,-101.8,"",Am,Am,US,L1c,CollAmE,9147593,3723,1,Spanish,161,241032343,51369809,yes
