language_ID,filename,meansynratio,meanmorphratio,syn.sd,morph.sd,area,language_name,latitude,longitude,glottocode,region,macro_region,country_id,language_type,abbr,spread,migration,contact_languages,contact_languages_names,all_L1,natives,non_natives,ewave
7,DEV_006,0.933834709314621,-0.97786477487873,0.0202385502625093,0.0210478874362007,DEV,English dialects in the Southwest of England,50.8,-4,"",BI,BI,GB,L1t,SW,9200,6033,0,"",17,1171642,89,yes
2,KRS_001,0.933026967092567,-0.968377598453423,0.0193584225087619,0.0157478275135703,KRS,Scottish English,56.9,-1.7,"",BI,BI,GB,L1t,ScE,77933,6033,0,"",17,5002242,5191030,yes
2,PER_002,0.935469598809736,-0.964788597775894,0.0206818252318377,0.016949735730432,PER,Scottish English,56.9,-1.7,"",BI,BI,GB,L1t,ScE,77933,6033,0,"",17,5002242,5191030,yes
80,SAL_023,0.934535096616756,-0.959609668365254,0.021419336293998,0.0135990590249532,SAL,English dialects in the Midlands,52.48,-1.89,"",BI,BI,GB,L1t,Mid,9778,6033,0,"",17,2154916,261,no
80,SAL_034,0.935285379799684,-0.961799061851891,0.021961493050304,0.0130953577880616,SAL,English dialects in the Midlands,52.48,-1.89,"",BI,BI,GB,L1t,Mid,9778,6033,0,"",17,2154916,261,no
80,WAR_001,0.93446135923085,-0.972593229667281,0.0186139181862318,0.017851950139913,WAR,English dialects in the Midlands,52.48,-1.89,"",BI,BI,GB,L1t,Mid,9778,6033,0,"",17,2154916,261,no
2,WLN_004,0.950050725322634,-0.966666149708565,0.0276248729511239,0.0167993832357272,WLN,Scottish English,56.9,-1.7,"",BI,BI,GB,L1t,ScE,77933,6033,0,"",17,5002242,5191030,yes
46,EA021,0.935502201018407,-0.976687064952813,0.0263101396566238,0.0154887637347048,EA,Kenyan English,-1.4,36.91,keny1281,Af,Af,KE,L2,KenE,569140,-351,2,Kiswahili/Kikuyu,78,2650281,341886210,yes
46,EA022,0.935640854042997,-0.976882559488495,0.0255364771145453,0.0179644144288983,EA,Kenyan English,-1.4,36.91,keny1281,Af,Af,KE,L2,KenE,569140,-351,2,Kiswahili/Kikuyu,78,2650281,341886210,yes
46,EA024,0.933618969879424,-0.999323475189209,0.0194297534110796,0.0248717877344645,EA,Kenyan English,-1.4,36.91,keny1281,Af,Af,KE,L2,KenE,569140,-351,2,Kiswahili/Kikuyu,78,2650281,341886210,yes
46,EA028,0.934282257905283,-0.983913136972479,0.0238025281837798,0.0221326306064864,EA,Kenyan English,-1.4,36.91,keny1281,Af,Af,KE,L2,KenE,569140,-351,2,Kiswahili/Kikuyu,78,2650281,341886210,yes
46,EA029,0.933118219709452,-0.988866081834034,0.0271192039093419,0.0230759284481606,EA,Kenyan English,-1.4,36.91,keny1281,Af,Af,KE,L2,KenE,569140,-351,2,Kiswahili/Kikuyu,78,2650281,341886210,yes
39,GH069,0.932613091162634,-0.97465308257398,0.0467171993501528,0.0184543120835539,GH,Ghanaian English,7.36,-1.42,ghan1247,Af,Af,GH,L2,GhE,227533,-381,2,Akan/Ewe,90,1407632,16713508,yes
56,HK008,0.950110102434417,-0.980384217135536,0.0342364604207,0.0200752033617829,HK,Hong Kong English,22.26,114.25,hong1245,As,As,HK,L2,HKE,1073,-2599,1,Cantonese,4,330782,3323559,yes
56,HK012,0.949844762856166,-0.982437625239781,0.0357920305072455,0.0204384699204489,HK,Hong Kong English,22.26,114.25,hong1245,As,As,HK,L2,HKE,1073,-2599,1,Cantonese,4,330782,3323559,yes
56,HK029,0.950811804843899,-0.983910416249937,0.0383934620699084,0.0217303179658215,HK,Hong Kong English,22.26,114.25,hong1245,As,As,HK,L2,HKE,1073,-2599,1,Cantonese,4,330782,3323559,yes
56,HK037,0.950736826080197,-0.981077998392944,0.0356767490648874,0.0175360365821415,HK,Hong Kong English,22.26,114.25,hong1245,As,As,HK,L2,HKE,1073,-2599,1,Cantonese,4,330782,3323559,yes
56,HK046,0.952800030260561,-0.98535897207372,0.0373551320255101,0.0229586072102,HK,Hong Kong English,22.26,114.25,hong1245,As,As,HK,L2,HKE,1073,-2599,1,Cantonese,4,330782,3323559,yes
56,HK068,0.951258280628361,-0.983774316156313,0.0375868392352258,0.0215639828106391,HK,Hong Kong English,22.26,114.25,hong1245,As,As,HK,L2,HKE,1073,-2599,1,Cantonese,4,330782,3323559,yes
3,IRE097,0.953933549645151,-0.980859922470593,0.0302523345333103,0.0209160109698675,IRE,Irish English,52.8,-7.8,iris1255,BI,BI,IE/GB,L1c,IrE,82430,6733,0,"",21,5067445,786703,yes
41,NG37,0.934617798693236,-0.972173582570049,0.0414967808102343,0.0133156933351517,NG,Nigerian English,9.1,7.38,nige1260,Af,Af,NG,L2,NigE,910768,-151,3,Hausa/Yoruba/Igbo,559,15364895,113102701,yes
41,NG67,0.934539533178847,-0.9725320939901,0.0425721796854647,0.0120647383782803,NG,Nigerian English,9.1,7.38,nige1260,Af,Af,NG,L2,NigE,910768,-151,3,Hausa/Yoruba/Igbo,559,15364895,113102701,yes
81,TT006,0.929285682738276,-0.977245178647975,0.0656557376951658,0.0154532558763501,TT,Trinidadian English,10.65,-61.47,trin1276,Ca,Ca,TT,L2,TTE,5128,885,0,"",3,1278000,222000,no
81,TT007,0.953307605110637,-0.991517418525159,0.0397235995975648,0.0285083261672134,TT,Trinidadian English,10.65,-61.47,trin1276,Ca,Ca,TT,L2,TTE,5128,885,0,"",3,1278000,222000,no
81,TT060,0.934847179495343,-0.975117304087201,0.0329522198348851,0.0190536254285063,TT,Trinidadian English,10.65,-61.47,trin1276,Ca,Ca,TT,L2,TTE,5128,885,0,"",3,1278000,222000,no
14,SBC001,0.9324561563814,-0.956219214796815,0.0171204513718256,0.0138858730955843,SBC,Colloquial American English,39.1,-101.8,"",Am,Am,US,L1c,CollAmE,9147593,3723,1,Spanish,161,241032343,51369809,yes
14,SBC002,0.927678610473632,-0.945855915817462,0.017108343133178,0.0128007362956371,SBC,Colloquial American English,39.1,-101.8,"",Am,Am,US,L1c,CollAmE,9147593,3723,1,Spanish,161,241032343,51369809,yes
14,SBC003,0.932115126925266,-0.943317294414565,0.019016604028528,0.0128649507199577,SBC,Colloquial American English,39.1,-101.8,"",Am,Am,US,L1c,CollAmE,9147593,3723,1,Spanish,161,241032343,51369809,yes
14,SBC004,0.926689178270552,-0.956654522451852,0.01543484785349,0.0143805608793913,SBC,Colloquial American English,39.1,-101.8,"",Am,Am,US,L1c,CollAmE,9147593,3723,1,Spanish,161,241032343,51369809,yes
14,SBC005,0.929085112138487,-0.949156192245428,0.0176213756694814,0.0127710137473793,SBC,Colloquial American English,39.1,-101.8,"",Am,Am,US,L1c,CollAmE,9147593,3723,1,Spanish,161,241032343,51369809,yes
14,SBC006,0.925804477736788,-0.948200445687078,0.0164382752286095,0.0136398482689658,SBC,Colloquial American English,39.1,-101.8,"",Am,Am,US,L1c,CollAmE,9147593,3723,1,Spanish,161,241032343,51369809,yes
14,SBC007,0.929740571632735,-0.946025745922403,0.0171925783392089,0.0127953518818189,SBC,Colloquial American English,39.1,-101.8,"",Am,Am,US,L1c,CollAmE,9147593,3723,1,Spanish,161,241032343,51369809,yes
14,SBC008,0.929043434703398,-0.962397396473787,0.0166479931073839,0.0179866075335589,SBC,Colloquial American English,39.1,-101.8,"",Am,Am,US,L1c,CollAmE,9147593,3723,1,Spanish,161,241032343,51369809,yes
14,SBC010,0.930568958973341,-0.957943281216116,0.0171778108597656,0.0156783968536506,SBC,Colloquial American English,39.1,-101.8,"",Am,Am,US,L1c,CollAmE,9147593,3723,1,Spanish,161,241032343,51369809,yes
14,SBC011,0.930951037804526,-0.944847716433931,0.0175821567307809,0.0118266598303083,SBC,Colloquial American English,39.1,-101.8,"",Am,Am,US,L1c,CollAmE,9147593,3723,1,Spanish,161,241032343,51369809,yes
14,SBC012,0.926555133094848,-0.951499827931496,0.0185413970717774,0.0159485394716409,SBC,Colloquial American English,39.1,-101.8,"",Am,Am,US,L1c,CollAmE,9147593,3723,1,Spanish,161,241032343,51369809,yes
14,SBC013,0.93322216259915,-0.941718573688607,0.0175215813277472,0.0116967704345722,SBC,Colloquial American English,39.1,-101.8,"",Am,Am,US,L1c,CollAmE,9147593,3723,1,Spanish,161,241032343,51369809,yes
14,SBC014,0.921638102389036,-0.959682285260484,0.0135937974101365,0.0153720785053881,SBC,Colloquial American English,39.1,-101.8,"",Am,Am,US,L1c,CollAmE,9147593,3723,1,Spanish,161,241032343,51369809,yes
14,SBC015,0.927652203012887,-0.957010460002069,0.0165449434474984,0.0165222046855308,SBC,Colloquial American English,39.1,-101.8,"",Am,Am,US,L1c,CollAmE,9147593,3723,1,Spanish,161,241032343,51369809,yes
14,SBC016,0.927579253292093,-0.952388271733143,0.0165978695974345,0.0135715170071424,SBC,Colloquial American English,39.1,-101.8,"",Am,Am,US,L1c,CollAmE,9147593,3723,1,Spanish,161,241032343,51369809,yes
14,SBC017,0.925703348938034,-0.960022822178925,0.0161380237695804,0.016674786703947,SBC,Colloquial American English,39.1,-101.8,"",Am,Am,US,L1c,CollAmE,9147593,3723,1,Spanish,161,241032343,51369809,yes
14,SBC018,0.927835959674124,-0.948390857755723,0.0163560357360014,0.0126613042566166,SBC,Colloquial American English,39.1,-101.8,"",Am,Am,US,L1c,CollAmE,9147593,3723,1,Spanish,161,241032343,51369809,yes
14,SBC019,0.928847539990688,-0.940964984207355,0.0182335548418305,0.0117297104057718,SBC,Colloquial American English,39.1,-101.8,"",Am,Am,US,L1c,CollAmE,9147593,3723,1,Spanish,161,241032343,51369809,yes
14,SBC020,0.925179986158442,-0.959187189025776,0.0164843757226352,0.0162668672593953,SBC,Colloquial American English,39.1,-101.8,"",Am,Am,US,L1c,CollAmE,9147593,3723,1,Spanish,161,241032343,51369809,yes
14,SBC021,0.925987489290995,-0.949349114560922,0.0162012270407405,0.0150197755821581,SBC,Colloquial American English,39.1,-101.8,"",Am,Am,US,L1c,CollAmE,9147593,3723,1,Spanish,161,241032343,51369809,yes
14,SBC022,0.92810550544789,-0.95666749511831,0.0155397309168067,0.0152051117530347,SBC,Colloquial American English,39.1,-101.8,"",Am,Am,US,L1c,CollAmE,9147593,3723,1,Spanish,161,241032343,51369809,yes
14,SBC023,0.925103223681031,-0.950784883576542,0.0160929123387869,0.0132605186512902,SBC,Colloquial American English,39.1,-101.8,"",Am,Am,US,L1c,CollAmE,9147593,3723,1,Spanish,161,241032343,51369809,yes
14,SBC025,0.92399596302268,-0.952741202195264,0.016616477989921,0.0140462669528652,SBC,Colloquial American English,39.1,-101.8,"",Am,Am,US,L1c,CollAmE,9147593,3723,1,Spanish,161,241032343,51369809,yes
14,SBC026,0.921992574089506,-0.969827350776061,0.0139740305079364,0.0174611669784989,SBC,Colloquial American English,39.1,-101.8,"",Am,Am,US,L1c,CollAmE,9147593,3723,1,Spanish,161,241032343,51369809,yes
14,SBC027,0.928297616046377,-0.953956545350603,0.0164440966569841,0.01828683260918,SBC,Colloquial American English,39.1,-101.8,"",Am,Am,US,L1c,CollAmE,9147593,3723,1,Spanish,161,241032343,51369809,yes
14,SBC028,0.931833448154439,-0.948378731712627,0.0178401100314821,0.012667144528388,SBC,Colloquial American English,39.1,-101.8,"",Am,Am,US,L1c,CollAmE,9147593,3723,1,Spanish,161,241032343,51369809,yes
14,SBC029,0.929852396889604,-0.952221691880023,0.0165042047165918,0.0151725850826176,SBC,Colloquial American English,39.1,-101.8,"",Am,Am,US,L1c,CollAmE,9147593,3723,1,Spanish,161,241032343,51369809,yes
14,SBC030,0.923442450342729,-0.954060268113127,0.0153047841700422,0.0141683708250267,SBC,Colloquial American English,39.1,-101.8,"",Am,Am,US,L1c,CollAmE,9147593,3723,1,Spanish,161,241032343,51369809,yes
14,SBC031,0.931357867025169,-0.942750342349662,0.0168094888013216,0.0114240110091537,SBC,Colloquial American English,39.1,-101.8,"",Am,Am,US,L1c,CollAmE,9147593,3723,1,Spanish,161,241032343,51369809,yes
14,SBC032,0.92749393963335,-0.946212395183376,0.0168257820102723,0.0125974627520996,SBC,Colloquial American English,39.1,-101.8,"",Am,Am,US,L1c,CollAmE,9147593,3723,1,Spanish,161,241032343,51369809,yes
14,SBC033,0.931627001750071,-0.951980149508144,0.0181080282943047,0.0174788235313395,SBC,Colloquial American English,39.1,-101.8,"",Am,Am,US,L1c,CollAmE,9147593,3723,1,Spanish,161,241032343,51369809,yes
14,SBC034,0.930253345060209,-0.944266191500997,0.0166281742421256,0.0120556745058697,SBC,Colloquial American English,39.1,-101.8,"",Am,Am,US,L1c,CollAmE,9147593,3723,1,Spanish,161,241032343,51369809,yes
14,SBC035,0.924712138291161,-0.950575823104742,0.0159322889918835,0.0142300514991427,SBC,Colloquial American English,39.1,-101.8,"",Am,Am,US,L1c,CollAmE,9147593,3723,1,Spanish,161,241032343,51369809,yes
14,SBC036,0.929753694742971,-0.957252238315514,0.0158467665268811,0.0166326166432113,SBC,Colloquial American English,39.1,-101.8,"",Am,Am,US,L1c,CollAmE,9147593,3723,1,Spanish,161,241032343,51369809,yes
14,SBC037,0.933449523183186,-0.943900664720256,0.0182358728019942,0.0122941186124921,SBC,Colloquial American English,39.1,-101.8,"",Am,Am,US,L1c,CollAmE,9147593,3723,1,Spanish,161,241032343,51369809,yes
14,SBC038,0.92341994442994,-0.95665579337678,0.0150587090982906,0.0164186710880664,SBC,Colloquial American English,39.1,-101.8,"",Am,Am,US,L1c,CollAmE,9147593,3723,1,Spanish,161,241032343,51369809,yes
14,SBC039,0.926344187937999,-0.954265730435345,0.0163331606278957,0.0150977391146598,SBC,Colloquial American English,39.1,-101.8,"",Am,Am,US,L1c,CollAmE,9147593,3723,1,Spanish,161,241032343,51369809,yes
14,SBC040,0.920053574395715,-0.957479571908038,0.0129838006262345,0.0135369954455151,SBC,Colloquial American English,39.1,-101.8,"",Am,Am,US,L1c,CollAmE,9147593,3723,1,Spanish,161,241032343,51369809,yes
14,SBC041,0.926438512178457,-0.950761754079402,0.0154808943441443,0.0132063371605155,SBC,Colloquial American English,39.1,-101.8,"",Am,Am,US,L1c,CollAmE,9147593,3723,1,Spanish,161,241032343,51369809,yes
14,SBC042,0.932341833734083,-0.943433686908907,0.0162661875295841,0.0109982163429617,SBC,Colloquial American English,39.1,-101.8,"",Am,Am,US,L1c,CollAmE,9147593,3723,1,Spanish,161,241032343,51369809,yes
14,SBC043,0.924427518127322,-0.954553940997946,0.0141536824781118,0.0151809659364862,SBC,Colloquial American English,39.1,-101.8,"",Am,Am,US,L1c,CollAmE,9147593,3723,1,Spanish,161,241032343,51369809,yes
14,SBC044,0.925927232021312,-0.958797648874502,0.0143041926557842,0.014350867506527,SBC,Colloquial American English,39.1,-101.8,"",Am,Am,US,L1c,CollAmE,9147593,3723,1,Spanish,161,241032343,51369809,yes
14,SBC045,0.926592034827144,-0.951071441121175,0.0160501356216717,0.0142915723978161,SBC,Colloquial American English,39.1,-101.8,"",Am,Am,US,L1c,CollAmE,9147593,3723,1,Spanish,161,241032343,51369809,yes
14,SBC046,0.927161197852207,-0.963761166110408,0.0144367661023873,0.0182656836025396,SBC,Colloquial American English,39.1,-101.8,"",Am,Am,US,L1c,CollAmE,9147593,3723,1,Spanish,161,241032343,51369809,yes
14,SBC047,0.927814838028121,-0.951723088626665,0.0158404239892671,0.014742434772072,SBC,Colloquial American English,39.1,-101.8,"",Am,Am,US,L1c,CollAmE,9147593,3723,1,Spanish,161,241032343,51369809,yes
14,SBC049,0.928155624457087,-0.945699923091351,0.0169292057668607,0.0119209847958657,SBC,Colloquial American English,39.1,-101.8,"",Am,Am,US,L1c,CollAmE,9147593,3723,1,Spanish,161,241032343,51369809,yes
14,SBC050,0.932931724619044,-0.943255818812257,0.0168057846581055,0.0116294981896693,SBC,Colloquial American English,39.1,-101.8,"",Am,Am,US,L1c,CollAmE,9147593,3723,1,Spanish,161,241032343,51369809,yes
14,SBC051,0.930310292937992,-0.945468387841435,0.0172850894131717,0.0123777156895773,SBC,Colloquial American English,39.1,-101.8,"",Am,Am,US,L1c,CollAmE,9147593,3723,1,Spanish,161,241032343,51369809,yes
14,SBC052,0.926948166939478,-0.950304262532469,0.0157811847675255,0.0137202510456276,SBC,Colloquial American English,39.1,-101.8,"",Am,Am,US,L1c,CollAmE,9147593,3723,1,Spanish,161,241032343,51369809,yes
14,SBC053,0.924069029613532,-0.954374646791517,0.0157065069027084,0.0146093726883837,SBC,Colloquial American English,39.1,-101.8,"",Am,Am,US,L1c,CollAmE,9147593,3723,1,Spanish,161,241032343,51369809,yes
14,SBC054,0.924735864608663,-0.954515816511259,0.0152312804731694,0.0141885083264426,SBC,Colloquial American English,39.1,-101.8,"",Am,Am,US,L1c,CollAmE,9147593,3723,1,Spanish,161,241032343,51369809,yes
14,SBC055,0.923795286802873,-0.946711458485957,0.0162151003275205,0.0127487094939753,SBC,Colloquial American English,39.1,-101.8,"",Am,Am,US,L1c,CollAmE,9147593,3723,1,Spanish,161,241032343,51369809,yes
14,SBC056,0.927118500639405,-0.943094101015532,0.0165944956907827,0.0112353837214635,SBC,Colloquial American English,39.1,-101.8,"",Am,Am,US,L1c,CollAmE,9147593,3723,1,Spanish,161,241032343,51369809,yes
14,SBC057,0.930545642503395,-0.946696240093717,0.0163216476860647,0.0125315432466924,SBC,Colloquial American English,39.1,-101.8,"",Am,Am,US,L1c,CollAmE,9147593,3723,1,Spanish,161,241032343,51369809,yes
14,SBC058,0.931735613070589,-0.944011405678335,0.0172137724494016,0.0125191924721059,SBC,Colloquial American English,39.1,-101.8,"",Am,Am,US,L1c,CollAmE,9147593,3723,1,Spanish,161,241032343,51369809,yes
14,SBC059,0.929290889919332,-0.946028535676214,0.0167153280703813,0.0133609712326349,SBC,Colloquial American English,39.1,-101.8,"",Am,Am,US,L1c,CollAmE,9147593,3723,1,Spanish,161,241032343,51369809,yes
14,SBC060,0.923148429821823,-0.95513927092132,0.0147715952975201,0.0137917591748919,SBC,Colloquial American English,39.1,-101.8,"",Am,Am,US,L1c,CollAmE,9147593,3723,1,Spanish,161,241032343,51369809,yes
